{
  "norad_id": 59506,
  "name": "STARLINK-31524",
  "history": [
    {
      "epoch": "2026-03-28T17:13:01.165440Z",
      "apogee_km": 484.2100241963781,
      "perigee_km": 481.45397294965096,
      "latitude_deg": -3.338964870064518e-05,
      "longitude_deg": 140.95519586757823,
      "height_km": 482.61174863471314,
      "semi_major_axis_km": 6860.968998573015,
      "eccentricity": 0.00020085,
      "inclination_deg": 43.0013,
      "raan_deg": 225.3439,
      "arg_perigee_deg": 269.899,
      "mean_anomaly_deg": 90.1631,
      "mean_motion_rev_day": 15.27652505
    },
    {
      "epoch": "2026-03-30T17:51:59.548608Z",
      "apogee_km": 483.5995652981619,
      "perigee_km": 483.02471308927943,
      "latitude_deg": -1.6020850760880065e-05,
      "longitude_deg": 117.77028638716119,
      "height_km": 482.804555021445,
      "semi_major_axis_km": 6861.44913919372,
      "eccentricity": 4.189e-05,
      "inclination_deg": 43.0001,
      "raan_deg": 213.9002,
      "arg_perigee_deg": 350.0784,
      "mean_anomaly_deg": 10.0059,
      "mean_motion_rev_day": 15.27492158
    }
  ]
}